NORAD_CAT_ID,OBJECT_NAME,OBJECT_TYPE,EPOCH,MEAN_MOTION,ECCENTRICITY,INCLINATION,RA_OF_ASC_NODE,ARG_OF_PERICENTER,MEAN_ANOMALY,BSTAR,MEAN_MOTION_DOT,MEAN_MOTION_DDOT,TLE_LINE0,TLE_LINE1,TLE_LINE2,SEMIMAJOR_AXIS,PERIOD,APOGEE,PERIGEE,DECAYED
54077.0,STARLINK-5171,PAYLOAD,2024-07-14 03:21:50,15.08855012,0.0001048,53.2157,153.2388,95.8999,264.2112,-0.00020715,-3.584e-05,0.0,0 STARLINK-5171,1 54077U 22136AC  24196.14016883 -.00003584  00000-0 -20715-3 0  9990,2 54077  53.2157 153.2388 0001048  95.8999 264.2112 15.08855012 96491,6917.835,95.437,540.424,538.975,0.0
54077.0,STARLINK-5171,PAYLOAD,2024-07-14 14:29:32,15.08834138,0.0001275,53.2164,151.1568,92.335,267.7789,0.00010456,1.376e-05,0.0,0 STARLINK-5171,1 54077U 22136AC  24196.60385382  .00001376  00000-0  10456-3 0  9990,2 54077  53.2164 151.1568 0001275  92.3350 267.7789 15.08834138 96080,6917.898,95.438,540.645,538.881,0.0
54077.0,STARLINK-5171,PAYLOAD,2024-07-14 20:51:05,15.08832031,0.0001309,53.2166,149.9671,92.5549,267.5593,0.00013207,1.814e-05,0.0,0 STARLINK-5171,1 54077U 22136AC  24196.86881628  .00001814  00000-0  13207-3 0  9996,2 54077  53.2166 149.9671 0001309  92.5549 267.5593 15.08832031 96601,6917.905,95.438,540.675,538.864,0.0
54077.0,STARLINK-5171,PAYLOAD,2024-07-15 06:23:23,15.08846697,0.0001288,53.2165,148.1828,96.971,263.1429,0.00017398,2.483e-05,0.0,0 STARLINK-5171,1 54077U 22136AC  24197.26624706  .00002483  00000-0  17398-3 0  9991,2 54077  53.2165 148.1828 0001288  96.9710 263.1429 15.08846697 96668,6917.86,95.437,540.616,538.834,0.0
54077.0,STARLINK-5171,PAYLOAD,2024-07-15 14:20:20,15.08839644,0.0001343,53.2169,146.6974,92.2108,267.9038,0.00012719,1.737e-05,0.0,0 STARLINK-5171,1 54077U 22136AC  24197.59745397  .00001737  00000-0  12719-3 0  9990,2 54077  53.2169 146.6974 0001343  92.2108 267.9038 15.08839644 96234,6917.881,95.438,540.676,538.817,0.0
54077.0,STARLINK-5171,PAYLOAD,2024-07-15 20:41:52,15.08835336,0.0001556,53.2163,145.507,96.8183,263.2986,7.0523e-05,8.34e-06,0.0,0 STARLINK-5171,1 54077U 22136AC  24197.86241888  .00000834  00000-0  70523-4 0  9991,2 54077  53.2163 145.5070 0001556  96.8183 263.2986 15.08835336 96754,6917.895,95.438,540.836,538.683,0.0
54077.0,STARLINK-5171,PAYLOAD,2024-07-16 03:03:25,15.08840213,0.0001146,53.2168,144.3183,98.8637,261.2485,0.00013107,1.799e-05,0.0,0 STARLINK-5171,1 54077U 22136AC  24198.12737424  .00001799  00000-0  13107-3 0  9992,2 54077  53.2168 144.3183 0001146  98.8637 261.2485 15.08840213 96798,6917.88,95.438,540.538,538.952,0.0
54077.0,STARLINK-5171,PAYLOAD,2024-07-17 02:54:11,15.0885248,0.0001529,53.2177,139.8575,103.4119,256.7044,0.00010465,1.378e-05,0.0,0 STARLINK-5171,1 54077U 22136AC  24199.12096692  .00001378  00000-0  10465-3 0  9995,2 54077  53.2177 139.8575 0001529 103.4119 256.7044 15.08852480 96941,6917.842,95.437,540.765,538.65,0.0
54077.0,STARLINK-5171,PAYLOAD,2024-07-18 02:44:59,15.08839819,0.0001588,53.2169,135.3969,104.8558,255.2611,3.7317e-05,3.06e-06,0.0,0 STARLINK-5171,1 54077U 22136AC  24200.11457701  .00000306  00000-0  37317-4 0  9995,2 54077  53.2169 135.3969 0001588 104.8558 255.2611 15.08839819 97099,6917.881,95.438,540.845,538.647,0.0
54077.0,STARLINK-5171,PAYLOAD,2024-07-18 12:17:18,15.08834542,0.0001471,53.2167,133.6082,84.7583,275.3577,-3.0436e-05,-7.72e-06,0.0,0 STARLINK-5171,1 54077U 22136AC  24200.51202070 -.00000772  00000-0 -30436-4 0  9990,2 54077  53.2167 133.6082 0001471  84.7583 275.3577 15.08834542 96674,6917.897,95.438,540.78,538.744,0.0
54077.0,STARLINK-5171,PAYLOAD,2024-07-19 04:11:09,15.08840715,0.0001562,53.2177,130.6453,110.0941,250.022,1.3718e-05,-7e-07,0.0,0 STARLINK-5171,1 54077U 22136AC  24201.17442127 -.00000070  00000-0  13718-4 0  9996,2 54077  53.2177 130.6453 0001562 110.0941 250.0220 15.08840715 97255,6917.878,95.438,540.824,538.663,0.0
54077.0,STARLINK-5171,PAYLOAD,2024-07-19 12:08:05,15.08840109,0.0001768,53.2166,129.1519,63.5526,296.5647,4.2893e-05,3.95e-06,0.0,0 STARLINK-5171,1 54077U 22136AC  24201.50562230  .00000395  00000-0  42893-4 0  9996,2 54077  53.2166 129.1519 0001768  63.5526 296.5647 15.08840109 96825,6917.88,95.438,540.968,538.522,0.0
54077.0,STARLINK-5171,PAYLOAD,2024-07-19 20:05:01,15.08833682,0.0001311,53.217,127.6673,86.6284,273.4858,-3.1856e-05,-7.95e-06,0.0,0 STARLINK-5171,1 54077U 22136AC  24201.83682696 -.00000795  00000-0 -31856-4 0  9994,2 54077  53.2170 127.6673 0001311  86.6284 273.4858 15.08833682 97350,6917.9,95.438,540.672,538.858,0.0
54077.0,STARLINK-5171,PAYLOAD,2024-07-20 04:01:57,15.08842399,0.0001832,53.2162,126.1772,76.3505,283.7691,0.00014736,2.058e-05,0.0,0 STARLINK-5171,1 54077U 22136AC  24202.16802394  .00002058  00000-0  14736-3 0  9999,2 54077  53.2162 126.1772 0001832  76.3505 283.7691 15.08842399 97405,6917.873,95.437,541.005,538.471,0.0
54077.0,STARLINK-5171,PAYLOAD,2024-07-20 11:58:51,15.08867081,0.0001394,53.2167,124.6953,84.4399,275.6752,0.000394,5.993e-05,0.0,0 STARLINK-5171,1 54077U 22136AC  24202.49920766  .00005993  00000-0  39400-3 0  9995,2 54077  53.2167 124.6953 0001394  84.4399 275.6752 15.08867081 97456,6917.798,95.436,540.627,538.698,0.0
54077.0,STARLINK-5171,PAYLOAD,2024-07-21 03:52:40,15.08926726,0.0001279,53.2166,121.7174,93.7383,266.3756,0.0015912,0.00025187,0.0,0 STARLINK-5171,1 54077U 22136AC  24203.16158011  .00025187  00000-0  15912-2 0  9994,2 54077  53.2166 121.7174 0001279  93.7383 266.3756 15.08926726 97550,6917.615,95.432,540.365,538.596,0.0
54077.0,STARLINK-5171,PAYLOAD,2024-07-22 03:43:21,15.0897368,0.0001203,53.2163,117.2572,95.7482,264.3647,0.001836,0.0002916,0.0,0 STARLINK-5171,1 54077U 22136AC  24204.15510793  .00029160  00000-0  18360-2 0  9998,2 54077  53.2163 117.2572 0001203  95.7482 264.3647 15.08973680 97220,6917.472,95.429,540.169,538.505,0.0
54077.0,STARLINK-5171,PAYLOAD,2024-07-22 22:47:51,15.09038662,0.0001069,53.2157,113.6911,99.4711,260.6402,0.0021673,0.00034562,0.0,0 STARLINK-5171,1 54077U 22136AC  24204.94989640  .00034562  00000-0  21673-2 0  9999,2 54077  53.2157 113.6911 0001069  99.4711 260.6402 15.09038662 97340,6917.273,95.425,539.878,538.399,0.0
54077.0,STARLINK-5171,PAYLOAD,2024-07-23 00:23:13,15.09047149,0.0001141,53.216,113.3919,99.1175,260.9946,0.0023279,0.00037167,0.0,0 STARLINK-5171,1 54077U 22136AC  24205.01612705  .00037167  00000-0  23279-2 0  9991,2 54077  53.2160 113.3919 0001141  99.1175 260.9946 15.09047149 97831,6917.247,95.424,539.902,538.323,0.0
54077.0,STARLINK-5171,PAYLOAD,2024-07-23 11:30:49,15.09084767,0.0001079,53.2156,111.3091,120.1072,240.0027,0.0022135,0.00035354,0.0,0 STARLINK-5171,1 54077U 22136AC  24205.47973478  .00035354  00000-0  22135-2 0  9994,2 54077  53.2156 111.3091 0001079 120.1072 240.0027 15.09084767 97427,6917.132,95.422,539.744,538.251,0.0
54077.0,STARLINK-5171,PAYLOAD,2024-07-23 22:38:24,15.0912167,0.0001026,53.2157,109.2277,111.3469,248.7633,0.002412,0.00038607,0.0,0 STARLINK-5171,1 54077U 22136AC  24205.94333359  .00038607  00000-0  24120-2 0  9994,2 54077  53.2157 109.2277 0001026 111.3469 248.7633 15.09121670 97494,6917.02,95.42,539.594,538.175,0.0
54077.0,STARLINK-5171,PAYLOAD,2024-07-24 03:24:30,15.09132887,0.0001007,53.2158,108.3355,109.3896,250.7205,0.0022672,0.00036272,0.0,0 STARLINK-5171,1 54077U 22136AC  24206.14201606  .00036272  00000-0  22672-2 0  9992,2 54077  53.2158 108.3355 0001007 109.3896 250.7205 15.09132887 98000,6916.985,95.419,539.547,538.154,0.0
54077.0,STARLINK-5171,PAYLOAD,2024-07-24 22:28:53,15.09185373,0.0001049,53.2164,104.7662,105.9772,254.1336,0.0022084,0.0003537,0.0,0 STARLINK-5171,1 54077U 22136AC  24206.93672817  .00035370  00000-0  22084-2 0  9990,2 54077  53.2164 104.7662 0001049 105.9772 254.1336 15.09185373 97649,6916.825,95.416,539.415,537.964,0.0
54077.0,STARLINK-5171,PAYLOAD,2024-07-25 03:14:58,15.09195911,0.000105,53.2165,103.8741,104.2407,255.8702,0.0020209,0.00032338,0.0,0 STARLINK-5171,1 54077U 22136AC  24207.13540210  .00032338  00000-0  20209-2 0  9992,2 54077  53.2165 103.8741 0001050 104.2407 255.8702 15.09195911 98158,6916.793,95.415,539.384,537.931,0.0
54077.0,STARLINK-5171,PAYLOAD,2024-07-25 22:19:19,15.09240116,9.98e-05,53.2164,100.3043,105.3487,254.7616,0.0017569,0.00028093,0.0,0 STARLINK-5171,1 54077U 22136AC  24207.93008203  .00028093  00000-0  17569-2 0  9999,2 54077  53.2164 100.3043 0000998 105.3487 254.7616 15.09240116 97793,6916.658,95.412,539.213,537.832,0.0
54077.0,STARLINK-5171,PAYLOAD,2024-07-25 23:54:40,15.09244536,9.74e-05,53.2164,100.0072,104.4338,255.6763,0.0018051,0.00028878,0.0,0 STARLINK-5171,1 54077U 22136AC  24207.99630429  .00028878  00000-0  18051-2 0  9994,2 54077  53.2164 100.0072 0000974 104.4338 255.6763 15.09244536 98289,6916.644,95.412,539.183,537.835,0.0
54077.0,STARLINK-5171,PAYLOAD,2024-07-26 17:23:37,15.09294585,9.17e-05,53.2163,96.7345,107.3273,252.7819,0.0019554,0.00031361,0.0,0 STARLINK-5171,1 54077U 22136AC  24208.72473495  .00031361  00000-0  19554-2 0  9994,2 54077  53.2163  96.7345 0000917 107.3273 252.7819 15.09294585 97917,6916.491,95.409,538.99,537.722,0.0
54077.0,STARLINK-5171,PAYLOAD,2024-07-27 21:59:59,15.09369643,8.1e-05,53.2159,91.3794,111.6979,248.41,0.0019177,0.00030812,0.0,0 STARLINK-5171,1 54077U 22136AC  24209.91666371  .00030812  00000-0  19177-2 0  9994,2 54077  53.2159  91.3794 0000810 111.6979 248.4100 15.09369643 98097,6916.262,95.404,538.687,537.567,0.0
54077.0,STARLINK-5171,PAYLOAD,2024-07-27 23:35:20,15.09370967,8.21e-05,53.2157,91.0819,112.4464,247.6615,0.0017961,0.00028833,0.0,0 STARLINK-5171,1 54077U 22136AC  24209.98288055  .00028833  00000-0  17961-2 0  9999,2 54077  53.2157  91.0819 0000821 112.4464 247.6615 15.09370967 98587,6916.258,95.404,538.691,537.555,0.0
54077.0,STARLINK-5171,PAYLOAD,2024-07-28 21:50:15,15.09416968,7.98e-05,53.2157,86.9163,115.981,244.1265,0.0016226,0.00026043,0.0,0 STARLINK-5171,1 54077U 22136AC  24210.90989905  .00026043  00000-0  16226-2 0  9999,2 54077  53.2157  86.9163 0000798 115.9810 244.1265 15.09416968 98246,6916.117,95.401,538.534,537.43,0.0
